[{"OBJECT_NAME":"OBJECT G","OBJECT_ID":"2024-092G","EPOCH":"2026-03-09T22:11:03.729408","MEAN_MOTION":14.31801198,"ECCENTRICITY":0.00127592,"INCLINATION":98.655,"RA_OF_ASC_NODE":188.1467,"ARG_OF_PERICENTER":137.1835,"MEAN_ANOMALY":223.0344,"EPHEMERIS_TYPE":0,"CLASSIFICATION_TYPE":"U","NORAD_CAT_ID":59779,"ELEMENT_SET_NO":999,"REV_AT_EPOCH":9469,"BSTAR":0.00013020254,"MEAN_MOTION_DOT":3.04e-6,"MEAN_MOTION_DDOT":0},{"OBJECT_NAME":"UNKNOWN","OBJECT_ID":"","EPOCH":"2026-03-09T10:01:33.864384","MEAN_MOTION":14.42163832,"ECCENTRICITY":0.0064941,"INCLINATION":70.5256,"RA_OF_ASC_NODE":82.0437,"ARG_OF_PERICENTER":236.416,"MEAN_ANOMALY":123.0764,"EPHEMERIS_TYPE":0,"CLASSIFICATION_TYPE":"U","NORAD_CAT_ID":81228,"ELEMENT_SET_NO":999,"REV_AT_EPOCH":63858,"BSTAR":0.0021222,"MEAN_MOTION_DOT":7.121e-5,"MEAN_MOTION_DDOT":0}]
